GAOFEN-14 02            
1 66175U 25242A   25301.10588829  .00014793  00000+0  55401-3 0  9993
2 66175  97.4398  13.2893 0010327 261.9781  98.0286 15.27335919   301
CZ-3B R/B               
1 66176U 25242B   25301.93325123  .00036568  00000+0  72796-3 0  9991
2 66176  97.4517  13.9913 0105040  32.7474 328.0225 15.40950652   430
2025-242C               
1 66177U 25242C   25299.40367106  .00004293  00000+0  21434-3 0  9990
2 66177  97.6110  12.4552 0044551 134.5252 225.9635 15.17165482    38
GRAVITY-1 R/B           
1 66205U 25226E   25300.77168880  .00044484  28228-5  39974-3 0  9997
2 66205  97.7931  16.4406 0163665 339.2938  20.1731 15.53131202   335
